COSMOS 2251 DEB         
1 35982U 93036AVY 17346.31096875  .00000322  00000-0  84783-4 0  9999
2 35982  74.0611 103.8788 0079424 205.2029 154.5249 14.51447620438121
